QIANFAN-73              
1 63159U 25046A   25353.71556742  .00000098  00000+0  13340-3 0  9996
2 63159  88.9766 319.3004 0016824 101.1540 259.1503 13.50978646 48357
QIANFAN-74              
1 63160U 25046B   25353.62488522  .00000052  00000+0  62354-4 0  9998
2 63160  88.9767 319.1985 0002036  75.5677 284.5700 13.50975402 48405
QIANFAN-75              
1 63161U 25046C   25353.76030425  .00000128  00000+0  17880-3 0  9996
2 63161  88.9768 319.4182 0017909 103.7988 256.5158 13.50980609 48291
QIANFAN-76              
1 63162U 25046D   25353.75695301  .00000061  00000+0  75708-4 0  9996
2 63162  88.9767 319.3992 0015446 103.9154 256.3716 13.50978025 48309
QIANFAN-77              
1 63163U 25046E   25353.70968772  .00000268  00000+0  18541-3 0  9997
2 63163  88.9769 317.3538 0016930  61.8686 298.4199 13.96092903 49425
QIANFAN-78              
1 63164U 25046F   25353.72376962  .00000110  00000+0  15173-3 0  9998
2 63164  88.9767 319.2665 0016787 106.2549 254.0450 13.50979009 48370
QIANFAN-79              
1 63165U 25046G   25353.75242260  .00000112  00000+0  15376-3 0  9992
2 63165  88.9770 319.3714 0016504 104.5955 255.7027 13.50980696 48327
QIANFAN-80              
1 63166U 25046H   25353.69488707  .00000114  00000+0  15757-3 0  9999
2 63166  88.9768 319.0840 0015413 108.2731 252.0098 13.50978587 48473
